{
  "type": "FeatureCollection",
  "features": [
    {
      "type": "Feature",
      "properties": {
        "category": "fireextinguisher",
        "accessibility": null,
        "name": {
          "en": "Fire Extinguisher"
        },
        "alt_name": {
          "en": "fire_extinguisher"
        },
        "level_id": "41d0e8ca-d315-4b25-938c-7955db2daf2e",
        "correlation_id": null,
        "local_category": "issue_submitted_amenity",
        "pedestrian_importance": true,
        "visible_to_visitors": null,
        "hours": null,
        "phone": null,
        "website": null,
        "unit_ids": [],
        "address_id": null,
        "source": "GitHub issue",
        "source_url": "https://github.com/beatybiodiversitymuseum/indoor-mapping/issues/6",
        "source_issue_number": 6,
        "source_issue_title": "Amenity or Opening: Fire Extinguisher",
        "confirmation_methods": [
          "Visually confirmed on site",
          "Measured on site",
          "Checked against a floor plan"
        ],
        "confirmation_details": "62cm from cabinet 51 corner, 58cm from cabinet 52 corner, 8cm away from cabinet edges",
        "reference_points": "Cabinet 51.26 and Cabinet 52.01",
        "contributor_notes": "",
        "image_transcriptions": [
          {
            "issue_number": 6,
            "issue_url": "https://github.com/beatybiodiversitymuseum/indoor-mapping/issues/6",
            "image_url": "https://github.com/user-attachments/assets/b13aa6be-8970-47fa-a628-0d3332d1c66f",
            "text": "b2\nS8",
            "engine": "Apple Vision accurate (en-US)",
            "review_status": "machine_transcribed_unreviewed",
            "confidence": 0.75
          }
        ],
        "photo_text": "b2\nS8",
        "photo_text_source_url": "https://github.com/user-attachments/assets/b13aa6be-8970-47fa-a628-0d3332d1c66f"
      },
      "geometry": {
        "type": "Point",
        "coordinates": [
          -123.2500802,
          49.2634957
        ]
      },
      "id": "2a0f9ac8-55fa-5b66-bb37-0c6a50e35a0b",
      "feature_type": "amenity"
    },
    {
      "type": "Feature",
      "properties": {
        "category": "fireextinguisher",
        "accessibility": null,
        "name": {
          "en": "Fire Extinguisher"
        },
        "alt_name": {
          "en": "fire_extinguisher"
        },
        "level_id": "41d0e8ca-d315-4b25-938c-7955db2daf2e",
        "correlation_id": null,
        "local_category": "issue_submitted_amenity",
        "pedestrian_importance": true,
        "visible_to_visitors": null,
        "hours": null,
        "phone": null,
        "website": null,
        "unit_ids": [],
        "address_id": null,
        "source": "GitHub issue",
        "source_url": "https://github.com/beatybiodiversitymuseum/indoor-mapping/issues/8",
        "source_issue_number": 8,
        "source_issue_title": "Amenity or Opening: Fire Extinguisher",
        "confirmation_methods": [
          "Visually confirmed on site",
          "Measured on site",
          "Checked against a floor plan"
        ],
        "confirmation_details": "58cm away from cabinet 48 corner, 62cm away from cabinet 47 corner, 8cm away from cabinet edges",
        "reference_points": "Cabinet 47.22 and Cabinet 48.01",
        "contributor_notes": ""
      },
      "geometry": {
        "type": "Point",
        "coordinates": [
          -123.2501432,
          49.2634738
        ]
      },
      "id": "1fac3f0b-1993-5efb-96a2-47874ef74e56",
      "feature_type": "amenity"
    },
    {
      "type": "Feature",
      "properties": {
        "category": "fireextinguisher",
        "accessibility": null,
        "name": {
          "en": "Fire Extinguisher"
        },
        "alt_name": {
          "en": "fire_extinguisher"
        },
        "level_id": "41d0e8ca-d315-4b25-938c-7955db2daf2e",
        "correlation_id": null,
        "local_category": "issue_submitted_amenity",
        "pedestrian_importance": true,
        "visible_to_visitors": null,
        "hours": null,
        "phone": null,
        "website": null,
        "unit_ids": [],
        "address_id": null,
        "source": "GitHub issue",
        "source_url": "https://github.com/beatybiodiversitymuseum/indoor-mapping/issues/9",
        "source_issue_number": 9,
        "source_issue_title": "Amenity or Opening: Fire Extinguisher",
        "confirmation_methods": [
          "Visually confirmed on site",
          "Measured on site"
        ],
        "confirmation_details": "62cm from cabinet 44 corner, 58cm from cabinet 43 corner, 8cm away from cabinet edges",
        "reference_points": "Cabinet 43.24 and Cabinet 44.01",
        "contributor_notes": ""
      },
      "geometry": {
        "type": "Point",
        "coordinates": [
          -123.2502067,
          49.2634517
        ]
      },
      "id": "d4cab4a2-2889-5603-a692-9f9668b03dc1",
      "feature_type": "amenity"
    },
    {
      "type": "Feature",
      "properties": {
        "category": "fireextinguisher",
        "accessibility": null,
        "name": {
          "en": "Fire Extinguisher"
        },
        "alt_name": {
          "en": "fire_extinguisher"
        },
        "level_id": "41d0e8ca-d315-4b25-938c-7955db2daf2e",
        "correlation_id": null,
        "local_category": "issue_submitted_amenity",
        "pedestrian_importance": true,
        "visible_to_visitors": null,
        "hours": null,
        "phone": null,
        "website": null,
        "unit_ids": [],
        "address_id": null,
        "source": "GitHub issue",
        "source_url": "https://github.com/beatybiodiversitymuseum/indoor-mapping/issues/10",
        "source_issue_number": 10,
        "source_issue_title": "Amenity or Opening: Fire Extinguisher",
        "confirmation_methods": [
          "Visually confirmed on site",
          "Measured on site"
        ],
        "confirmation_details": "58cm away from cabinet 39 corner, 62cm away from cabinet 40 corner, 8cm away from cabinet edges",
        "reference_points": "Cabinet 39.26 and Cabinet 40.01",
        "contributor_notes": ""
      },
      "geometry": {
        "type": "Point",
        "coordinates": [
          -123.2502697,
          49.2634297
        ]
      },
      "id": "4f6e09e7-7132-573a-bac4-e132683b83ca",
      "feature_type": "amenity"
    },
    {
      "type": "Feature",
      "properties": {
        "category": "fireextinguisher",
        "accessibility": null,
        "name": {
          "en": "Fire Extinguisher"
        },
        "alt_name": {
          "en": "fire_extinguisher"
        },
        "level_id": "41d0e8ca-d315-4b25-938c-7955db2daf2e",
        "correlation_id": null,
        "local_category": "issue_submitted_amenity",
        "pedestrian_importance": true,
        "visible_to_visitors": null,
        "hours": null,
        "phone": null,
        "website": null,
        "unit_ids": [],
        "address_id": null,
        "source": "GitHub issue",
        "source_url": "https://github.com/beatybiodiversitymuseum/indoor-mapping/issues/11",
        "source_issue_number": 11,
        "source_issue_title": "Amenity or Opening: Fire Extinguisher",
        "confirmation_methods": [
          "Visually confirmed on site",
          "Measured on site"
        ],
        "confirmation_details": "58cm away from cabinet 35 corner, 62cm away from cabinet 36 corner, 8cm away from cabinet edges",
        "reference_points": "Cabinter 35.17 and Cabinet 36.01",
        "contributor_notes": ""
      },
      "geometry": {
        "type": "Point",
        "coordinates": [
          -123.2503327,
          49.2634079
        ]
      },
      "id": "619fa456-ddf4-5b6d-b39d-011000be737d",
      "feature_type": "amenity"
    },
    {
      "type": "Feature",
      "properties": {
        "category": "fireextinguisher",
        "accessibility": null,
        "name": {
          "en": "Fire Extinguisher"
        },
        "alt_name": {
          "en": "fire_extinguisher"
        },
        "level_id": "41d0e8ca-d315-4b25-938c-7955db2daf2e",
        "correlation_id": null,
        "local_category": "issue_submitted_amenity",
        "pedestrian_importance": true,
        "visible_to_visitors": null,
        "hours": null,
        "phone": null,
        "website": null,
        "unit_ids": [],
        "address_id": null,
        "source": "GitHub issue",
        "source_url": "https://github.com/beatybiodiversitymuseum/indoor-mapping/issues/12",
        "source_issue_number": 12,
        "source_issue_title": "Amenity or Opening: Fire Extinguisher",
        "confirmation_methods": [
          "Visually confirmed on site",
          "Measured on site"
        ],
        "confirmation_details": "58cm away from cabinet 31 corner, 62cm away from cabinet 32 corner, 8cm away from cabinet edges",
        "reference_points": "Cabinet 31.16 and Cabinet 32.01",
        "contributor_notes": ""
      },
      "geometry": {
        "type": "Point",
        "coordinates": [
          -123.2503956,
          49.2633858
        ]
      },
      "id": "1c1a326f-a411-5096-88f9-a0a3b8598ef6",
      "feature_type": "amenity"
    },
    {
      "type": "Feature",
      "properties": {
        "category": "fireextinguisher",
        "accessibility": null,
        "name": {
          "en": "Fire Extinguisher"
        },
        "alt_name": {
          "en": "fire_extinguisher"
        },
        "level_id": "41d0e8ca-d315-4b25-938c-7955db2daf2e",
        "correlation_id": null,
        "local_category": "issue_submitted_amenity",
        "pedestrian_importance": true,
        "visible_to_visitors": null,
        "hours": null,
        "phone": null,
        "website": null,
        "unit_ids": [],
        "address_id": null,
        "source": "GitHub issue",
        "source_url": "https://github.com/beatybiodiversitymuseum/indoor-mapping/issues/13",
        "source_issue_number": 13,
        "source_issue_title": "Amenity or Opening: Fire Extinguisher",
        "confirmation_methods": [
          "Visually confirmed on site",
          "Measured on site"
        ],
        "confirmation_details": "58cm away from cabinet 27 corner, 62cm away from cabinet 28 corner, 8cm away from cabinet edges",
        "reference_points": "Cabinet 27.26 and Cabinet 28.01",
        "contributor_notes": ""
      },
      "geometry": {
        "type": "Point",
        "coordinates": [
          -123.2504585,
          49.263364
        ]
      },
      "id": "00527250-88b5-5525-9930-b86312e4a195",
      "feature_type": "amenity"
    },
    {
      "type": "Feature",
      "properties": {
        "category": "fireextinguisher",
        "accessibility": null,
        "name": {
          "en": "Fire Extinguisher"
        },
        "alt_name": {
          "en": "fire_extinguisher"
        },
        "level_id": "41d0e8ca-d315-4b25-938c-7955db2daf2e",
        "correlation_id": null,
        "local_category": "issue_submitted_amenity",
        "pedestrian_importance": true,
        "visible_to_visitors": null,
        "hours": null,
        "phone": null,
        "website": null,
        "unit_ids": [],
        "address_id": null,
        "source": "GitHub issue",
        "source_url": "https://github.com/beatybiodiversitymuseum/indoor-mapping/issues/14",
        "source_issue_number": 14,
        "source_issue_title": "Amenity or Opening: Fire Extinguisher",
        "confirmation_methods": [
          "Visually confirmed on site",
          "Measured on site"
        ],
        "confirmation_details": "58cm away from cabinet 23 corner, 62cm away from cabinet 24 corner, 8cm away from cabinet edges",
        "reference_points": "Cabinet 23.16 and Cabinet 24.01",
        "contributor_notes": ""
      },
      "geometry": {
        "type": "Point",
        "coordinates": [
          -123.2505209,
          49.2633424
        ]
      },
      "id": "5dcfbe8d-b58e-5049-9926-5ef24c1e593a",
      "feature_type": "amenity"
    },
    {
      "type": "Feature",
      "properties": {
        "category": "fireextinguisher",
        "accessibility": null,
        "name": {
          "en": "Fire Extinguisher"
        },
        "alt_name": {
          "en": "fire_extinguisher"
        },
        "level_id": "41d0e8ca-d315-4b25-938c-7955db2daf2e",
        "correlation_id": null,
        "local_category": "issue_submitted_amenity",
        "pedestrian_importance": true,
        "visible_to_visitors": null,
        "hours": null,
        "phone": null,
        "website": null,
        "unit_ids": [],
        "address_id": null,
        "source": "GitHub issue",
        "source_url": "https://github.com/beatybiodiversitymuseum/indoor-mapping/issues/15",
        "source_issue_number": 15,
        "source_issue_title": "Amenity or Opening: Fire Extinguisher",
        "confirmation_methods": [
          "Visually confirmed on site",
          "Measured on site"
        ],
        "confirmation_details": "58cm away from cabinet 20 corner, 62cm away from cabinet 19 corner, 8cm away from cabinet edges",
        "reference_points": "Cabinet 19.26 and Cabinet 20.01",
        "contributor_notes": ""
      },
      "geometry": {
        "type": "Point",
        "coordinates": [
          -123.2505838,
          49.2633205
        ]
      },
      "id": "9e8a64b5-0070-52ef-a71b-e06f882456b0",
      "feature_type": "amenity"
    },
    {
      "type": "Feature",
      "properties": {
        "category": "fireextinguisher",
        "accessibility": null,
        "name": {
          "en": "Fire Extinguisher"
        },
        "alt_name": {
          "en": "fire_extinguisher"
        },
        "level_id": "41d0e8ca-d315-4b25-938c-7955db2daf2e",
        "correlation_id": null,
        "local_category": "issue_submitted_amenity",
        "pedestrian_importance": true,
        "visible_to_visitors": null,
        "hours": null,
        "phone": null,
        "website": null,
        "unit_ids": [],
        "address_id": null,
        "source": "GitHub issue",
        "source_url": "https://github.com/beatybiodiversitymuseum/indoor-mapping/issues/16",
        "source_issue_number": 16,
        "source_issue_title": "Amenity or Opening: Fire Extinguisher",
        "confirmation_methods": [
          "Visually confirmed on site",
          "Measured on site"
        ],
        "confirmation_details": "58cm away from cabinet 16 corner, 62cm away from cabinet 15 corner, 8cm away from cabinet edges",
        "reference_points": "Cabinet 15.26 and Cabinet 16.01",
        "contributor_notes": ""
      },
      "geometry": {
        "type": "Point",
        "coordinates": [
          -123.2506468,
          49.2632986
        ]
      },
      "id": "ca26c454-da65-5134-9f2c-db3a63e9d5a7",
      "feature_type": "amenity"
    },
    {
      "type": "Feature",
      "properties": {
        "category": "fireextinguisher",
        "accessibility": null,
        "name": {
          "en": "Fire Extinguisher"
        },
        "alt_name": {
          "en": "fire_extinguisher"
        },
        "level_id": "41d0e8ca-d315-4b25-938c-7955db2daf2e",
        "correlation_id": null,
        "local_category": "issue_submitted_amenity",
        "pedestrian_importance": true,
        "visible_to_visitors": null,
        "hours": null,
        "phone": null,
        "website": null,
        "unit_ids": [],
        "address_id": null,
        "source": "GitHub issue",
        "source_url": "https://github.com/beatybiodiversitymuseum/indoor-mapping/issues/17",
        "source_issue_number": 17,
        "source_issue_title": "Amenity or Opening: Fire Extinguisher",
        "confirmation_methods": [
          "Visually confirmed on site",
          "Measured on site"
        ],
        "confirmation_details": "58cm away from cabinet 11 corner, 62cm away from cabinet 12 corner, 8cm away from cabinet edges",
        "reference_points": "Cabinet 11.26 and Cabinet 12.01",
        "contributor_notes": ""
      },
      "geometry": {
        "type": "Point",
        "coordinates": [
          -123.2507104,
          49.2632765
        ]
      },
      "id": "2a95f9f9-7c24-5fb7-a3e2-fbddd19a535f",
      "feature_type": "amenity"
    },
    {
      "type": "Feature",
      "properties": {
        "category": "fireextinguisher",
        "accessibility": null,
        "name": {
          "en": "Fire Extinguisher"
        },
        "alt_name": {
          "en": "fire_extinguisher"
        },
        "level_id": "41d0e8ca-d315-4b25-938c-7955db2daf2e",
        "correlation_id": null,
        "local_category": "issue_submitted_amenity",
        "pedestrian_importance": true,
        "visible_to_visitors": null,
        "hours": null,
        "phone": null,
        "website": null,
        "unit_ids": [],
        "address_id": null,
        "source": "GitHub issue",
        "source_url": "https://github.com/beatybiodiversitymuseum/indoor-mapping/issues/18",
        "source_issue_number": 18,
        "source_issue_title": "Amenity or Opening: Fire Extinguisher",
        "confirmation_methods": [
          "Visually confirmed on site",
          "Measured on site"
        ],
        "confirmation_details": "58cm away from cabinet 7 corner, 62cm away from cabinet 8 corner, 8cm away from cabinet edges",
        "reference_points": "Cabinet 7.14 and Cabinet 8.01",
        "contributor_notes": ""
      },
      "geometry": {
        "type": "Point",
        "coordinates": [
          -123.2507731,
          49.2632545
        ]
      },
      "id": "4033ad85-0065-5baf-a053-68dfba8dbea4",
      "feature_type": "amenity"
    },
    {
      "type": "Feature",
      "properties": {
        "category": "fireextinguisher",
        "accessibility": null,
        "name": {
          "en": "Fire Extinguisher"
        },
        "alt_name": {
          "en": "fire_extinguisher"
        },
        "level_id": "41d0e8ca-d315-4b25-938c-7955db2daf2e",
        "correlation_id": null,
        "local_category": "issue_submitted_amenity",
        "pedestrian_importance": true,
        "visible_to_visitors": null,
        "hours": null,
        "phone": null,
        "website": null,
        "unit_ids": [],
        "address_id": null,
        "source": "GitHub issue",
        "source_url": "https://github.com/beatybiodiversitymuseum/indoor-mapping/issues/19",
        "source_issue_number": 19,
        "source_issue_title": "Amenity or Opening: Fire Extinguisher",
        "confirmation_methods": [
          "Visually confirmed on site",
          "Measured on site"
        ],
        "confirmation_details": "58cm away from cabinet 3 corner, 62cm away from cabinet 4 corner, 8cm away from cabinet edges",
        "reference_points": "Cabinet 3.24 and Cabinet 4.01",
        "contributor_notes": ""
      },
      "geometry": {
        "type": "Point",
        "coordinates": [
          -123.2508364,
          49.2632326
        ]
      },
      "id": "9d7cc155-aed6-57b8-98ff-1e203e625bd6",
      "feature_type": "amenity"
    },
    {
      "type": "Feature",
      "properties": {
        "category": "fireextinguisher",
        "accessibility": null,
        "name": {
          "en": "Fire Extinguisher"
        },
        "alt_name": {
          "en": "fire_extinguisher"
        },
        "level_id": "41d0e8ca-d315-4b25-938c-7955db2daf2e",
        "correlation_id": null,
        "local_category": "issue_submitted_amenity",
        "pedestrian_importance": true,
        "visible_to_visitors": null,
        "hours": null,
        "phone": null,
        "website": null,
        "unit_ids": [],
        "address_id": null,
        "source": "GitHub issue",
        "source_url": "https://github.com/beatybiodiversitymuseum/indoor-mapping/issues/22",
        "source_issue_number": 22,
        "source_issue_title": "Amenity: Fire Extinguisher",
        "confirmation_methods": [
          "Visually confirmed on site",
          "Measured on site"
        ],
        "confirmation_details": "58cm away from cabinet 52 corner, 62cm away from cabinet 51 corner, 8cm away from cabinet edges",
        "reference_points": "Cabinet 52.26 and Cabinet 51.01",
        "contributor_notes": ""
      },
      "geometry": {
        "type": "Point",
        "coordinates": [
          -123.2502418,
          49.263699
        ]
      },
      "id": "a1df0eba-90ff-5c90-884f-e377af0015bd",
      "feature_type": "amenity"
    },
    {
      "type": "Feature",
      "properties": {
        "category": "fireextinguisher",
        "accessibility": null,
        "name": {
          "en": "Fire Extinguisher"
        },
        "alt_name": {
          "en": "fire_extinguisher"
        },
        "level_id": "41d0e8ca-d315-4b25-938c-7955db2daf2e",
        "correlation_id": null,
        "local_category": "issue_submitted_amenity",
        "pedestrian_importance": true,
        "visible_to_visitors": null,
        "hours": null,
        "phone": null,
        "website": null,
        "unit_ids": [],
        "address_id": null,
        "source": "GitHub issue",
        "source_url": "https://github.com/beatybiodiversitymuseum/indoor-mapping/issues/23",
        "source_issue_number": 23,
        "source_issue_title": "Amenity: Fire Extinguisher",
        "confirmation_methods": [
          "Visually confirmed on site",
          "Measured on site"
        ],
        "confirmation_details": "59cm away from cabinet 48 corner, 61cm away from cabinet 47 corner, 8cm away from cabinet edges",
        "reference_points": "Cabinet 48.22 and Cabinet 47.01",
        "contributor_notes": ""
      },
      "geometry": {
        "type": "Point",
        "coordinates": [
          -123.250305,
          49.2636769
        ]
      },
      "id": "83f68ad6-7e8e-572b-9849-d6eb2ba579de",
      "feature_type": "amenity"
    },
    {
      "type": "Feature",
      "properties": {
        "category": "fireextinguisher",
        "accessibility": null,
        "name": {
          "en": "Fire Extinguisher"
        },
        "alt_name": {
          "en": "fire_extinguisher"
        },
        "level_id": "41d0e8ca-d315-4b25-938c-7955db2daf2e",
        "correlation_id": null,
        "local_category": "issue_submitted_amenity",
        "pedestrian_importance": true,
        "visible_to_visitors": null,
        "hours": null,
        "phone": null,
        "website": null,
        "unit_ids": [],
        "address_id": null,
        "source": "GitHub issue",
        "source_url": "https://github.com/beatybiodiversitymuseum/indoor-mapping/issues/24",
        "source_issue_number": 24,
        "source_issue_title": "Amenity: Fire Extinguisher",
        "confirmation_methods": [
          "Visually confirmed on site",
          "Measured on site"
        ],
        "confirmation_details": "62cm away from cabinet 44 corner, 58cm away from cabinet 43 corner, 8cm away from cabinet edges",
        "reference_points": "Cabinet 44.24 and Cabinet 43.01",
        "contributor_notes": ""
      },
      "geometry": {
        "type": "Point",
        "coordinates": [
          -123.2503689,
          49.2636547
        ]
      },
      "id": "4840d4bc-cbf6-5a6a-8c01-418e056b61c2",
      "feature_type": "amenity"
    },
    {
      "type": "Feature",
      "properties": {
        "category": "fireextinguisher",
        "accessibility": null,
        "name": {
          "en": "Fire Extinguisher"
        },
        "alt_name": {
          "en": "fire_extinguisher"
        },
        "level_id": "41d0e8ca-d315-4b25-938c-7955db2daf2e",
        "correlation_id": null,
        "local_category": "issue_submitted_amenity",
        "pedestrian_importance": true,
        "visible_to_visitors": null,
        "hours": null,
        "phone": null,
        "website": null,
        "unit_ids": [],
        "address_id": null,
        "source": "GitHub issue",
        "source_url": "https://github.com/beatybiodiversitymuseum/indoor-mapping/issues/25",
        "source_issue_number": 25,
        "source_issue_title": "Amenity: Fire Extinguisher",
        "confirmation_methods": [
          "Visually confirmed on site",
          "Measured on site"
        ],
        "confirmation_details": "61cm away from cabinet 40 corner, 59cm away from cabinet 39 corner, 8cm away from cabinet edges",
        "reference_points": "Cabinet 40.26 and Cabinet 39.01",
        "contributor_notes": ""
      },
      "geometry": {
        "type": "Point",
        "coordinates": [
          -123.2504316,
          49.2636328
        ]
      },
      "id": "383e81ae-a198-5130-8d68-006fcab3d0a3",
      "feature_type": "amenity"
    },
    {
      "type": "Feature",
      "properties": {
        "category": "fireextinguisher",
        "accessibility": null,
        "name": {
          "en": "Fire Extinguisher"
        },
        "alt_name": {
          "en": "fire_extinguisher"
        },
        "level_id": "41d0e8ca-d315-4b25-938c-7955db2daf2e",
        "correlation_id": null,
        "local_category": "issue_submitted_amenity",
        "pedestrian_importance": true,
        "visible_to_visitors": null,
        "hours": null,
        "phone": null,
        "website": null,
        "unit_ids": [],
        "address_id": null,
        "source": "GitHub issue",
        "source_url": "https://github.com/beatybiodiversitymuseum/indoor-mapping/issues/26",
        "source_issue_number": 26,
        "source_issue_title": "Amenity: Fire Extinguisher",
        "confirmation_methods": [
          "Visually confirmed on site",
          "Measured on site"
        ],
        "confirmation_details": "58cm away from cabinet 36 corner, 62cm away from cabinet 35 corner, 8cm away from cabinet edges",
        "reference_points": "Cabinet 36.17 and Cabinet 35.01",
        "contributor_notes": ""
      },
      "geometry": {
        "type": "Point",
        "coordinates": [
          -123.2504938,
          49.263611
        ]
      },
      "id": "83ff78e2-17a3-5cc9-a2af-0fddb4776484",
      "feature_type": "amenity"
    },
    {
      "type": "Feature",
      "properties": {
        "category": "fireextinguisher",
        "accessibility": null,
        "name": {
          "en": "Fire Extinguisher"
        },
        "alt_name": {
          "en": "fire_extinguisher"
        },
        "level_id": "41d0e8ca-d315-4b25-938c-7955db2daf2e",
        "correlation_id": null,
        "local_category": "issue_submitted_amenity",
        "pedestrian_importance": true,
        "visible_to_visitors": null,
        "hours": null,
        "phone": null,
        "website": null,
        "unit_ids": [],
        "address_id": null,
        "source": "GitHub issue",
        "source_url": "https://github.com/beatybiodiversitymuseum/indoor-mapping/issues/27",
        "source_issue_number": 27,
        "source_issue_title": "Amenity: Fire Extinguisher",
        "confirmation_methods": [
          "Visually confirmed on site",
          "Measured on site"
        ],
        "confirmation_details": "62cm away from cabinet 32 corner, 58cm away from cabinet 31 corner, 8cm away from cabinet edges",
        "reference_points": "Cabinet 32.16 and Cabinet 31.01",
        "contributor_notes": ""
      },
      "geometry": {
        "type": "Point",
        "coordinates": [
          -123.2505576,
          49.2635889
        ]
      },
      "id": "e4760f2c-b497-519d-a5b1-a5baf3033508",
      "feature_type": "amenity"
    },
    {
      "type": "Feature",
      "properties": {
        "category": "fireextinguisher",
        "accessibility": null,
        "name": {
          "en": "Fire Extinguisher"
        },
        "alt_name": {
          "en": "fire_extinguisher"
        },
        "level_id": "41d0e8ca-d315-4b25-938c-7955db2daf2e",
        "correlation_id": null,
        "local_category": "issue_submitted_amenity",
        "pedestrian_importance": true,
        "visible_to_visitors": null,
        "hours": null,
        "phone": null,
        "website": null,
        "unit_ids": [],
        "address_id": null,
        "source": "GitHub issue",
        "source_url": "https://github.com/beatybiodiversitymuseum/indoor-mapping/issues/28",
        "source_issue_number": 28,
        "source_issue_title": "Amenity: Fire Extinguisher",
        "confirmation_methods": [
          "Visually confirmed on site",
          "Measured on site"
        ],
        "confirmation_details": "58cm away from cabinet 28 corner, 62cm away from cabinet 27 corner, 8cm away from cabinet edges",
        "reference_points": "Cabinet 28.26 and Cabinet 27.01",
        "contributor_notes": ""
      },
      "geometry": {
        "type": "Point",
        "coordinates": [
          -123.2506195,
          49.2635673
        ]
      },
      "id": "089527f8-234a-5d81-b85f-99826dd2cfef",
      "feature_type": "amenity"
    },
    {
      "type": "Feature",
      "properties": {
        "category": "fireextinguisher",
        "accessibility": null,
        "name": {
          "en": "Fire Extinguisher"
        },
        "alt_name": {
          "en": "fire_extinguisher"
        },
        "level_id": "41d0e8ca-d315-4b25-938c-7955db2daf2e",
        "correlation_id": null,
        "local_category": "issue_submitted_amenity",
        "pedestrian_importance": true,
        "visible_to_visitors": null,
        "hours": null,
        "phone": null,
        "website": null,
        "unit_ids": [],
        "address_id": null,
        "source": "GitHub issue",
        "source_url": "https://github.com/beatybiodiversitymuseum/indoor-mapping/issues/29",
        "source_issue_number": 29,
        "source_issue_title": "Amenity: Fire Extinguisher",
        "confirmation_methods": [
          "Visually confirmed on site",
          "Measured on site"
        ],
        "confirmation_details": "58cm away from cabinet 24 corner, 62cm away from cabinet 23 corner, 8cm away from cabinet edges",
        "reference_points": "Cabinet 24.16 and Cabinet 23.01",
        "contributor_notes": ""
      },
      "geometry": {
        "type": "Point",
        "coordinates": [
          -123.2506826,
          49.2635453
        ]
      },
      "id": "a501f5ca-f67d-51e5-8a22-1951d61ae524",
      "feature_type": "amenity"
    },
    {
      "type": "Feature",
      "properties": {
        "category": "fireextinguisher",
        "accessibility": null,
        "name": {
          "en": "Fire Extinguisher"
        },
        "alt_name": {
          "en": "fire_extinguisher"
        },
        "level_id": "41d0e8ca-d315-4b25-938c-7955db2daf2e",
        "correlation_id": null,
        "local_category": "issue_submitted_amenity",
        "pedestrian_importance": true,
        "visible_to_visitors": null,
        "hours": null,
        "phone": null,
        "website": null,
        "unit_ids": [],
        "address_id": null,
        "source": "GitHub issue",
        "source_url": "https://github.com/beatybiodiversitymuseum/indoor-mapping/issues/30",
        "source_issue_number": 30,
        "source_issue_title": "Amenity: Fire Extinguisher",
        "confirmation_methods": [
          "Visually confirmed on site",
          "Measured on site"
        ],
        "confirmation_details": "60cm away from cabinet 20 corner, 60cm away from cabinet 19 corner, 8cm away from cabinet edges",
        "reference_points": "Cabinet 20.26 and Cabinet 19.01",
        "contributor_notes": ""
      },
      "geometry": {
        "type": "Point",
        "coordinates": [
          -123.2507458,
          49.2635234
        ]
      },
      "id": "da2ea8e1-42f4-59e1-b474-015cb1d16ba3",
      "feature_type": "amenity"
    },
    {
      "type": "Feature",
      "properties": {
        "category": "fireextinguisher",
        "accessibility": null,
        "name": {
          "en": "Fire Extinguisher"
        },
        "alt_name": {
          "en": "fire_extinguisher"
        },
        "level_id": "41d0e8ca-d315-4b25-938c-7955db2daf2e",
        "correlation_id": null,
        "local_category": "issue_submitted_amenity",
        "pedestrian_importance": true,
        "visible_to_visitors": null,
        "hours": null,
        "phone": null,
        "website": null,
        "unit_ids": [],
        "address_id": null,
        "source": "GitHub issue",
        "source_url": "https://github.com/beatybiodiversitymuseum/indoor-mapping/issues/31",
        "source_issue_number": 31,
        "source_issue_title": "Amenity: Fire Extinguisher",
        "confirmation_methods": [
          "Visually confirmed on site",
          "Measured on site"
        ],
        "confirmation_details": "62cm away from cabinet 16 corner, 58cm away from cabinet 15 corner, 8cm away from cabinet edges",
        "reference_points": "Cabinet 16.26 and Cabinet 15.01",
        "contributor_notes": ""
      },
      "geometry": {
        "type": "Point",
        "coordinates": [
          -123.2508092,
          49.2635015
        ]
      },
      "id": "43a6e53e-3513-5d3d-ac96-60b858a7ddfe",
      "feature_type": "amenity"
    },
    {
      "type": "Feature",
      "properties": {
        "category": "fireextinguisher",
        "accessibility": null,
        "name": {
          "en": "Fire Extinguisher"
        },
        "alt_name": {
          "en": "fire_extinguisher"
        },
        "level_id": "41d0e8ca-d315-4b25-938c-7955db2daf2e",
        "correlation_id": null,
        "local_category": "issue_submitted_amenity",
        "pedestrian_importance": true,
        "visible_to_visitors": null,
        "hours": null,
        "phone": null,
        "website": null,
        "unit_ids": [],
        "address_id": null,
        "source": "GitHub issue",
        "source_url": "https://github.com/beatybiodiversitymuseum/indoor-mapping/issues/32",
        "source_issue_number": 32,
        "source_issue_title": "Amenity: Fire Extinguisher",
        "confirmation_methods": [
          "Visually confirmed on site",
          "Measured on site"
        ],
        "confirmation_details": "62cm away from cabinet 12 corner, 58cm away from cabinet 11 corner, 8cm away from cabinet edges",
        "reference_points": "Cabinet 12.26 and Cabinet 11.01",
        "contributor_notes": ""
      },
      "geometry": {
        "type": "Point",
        "coordinates": [
          -123.2508724,
          49.2634793
        ]
      },
      "id": "2388ba21-0c4f-5382-8219-19149cec689b",
      "feature_type": "amenity"
    },
    {
      "type": "Feature",
      "properties": {
        "category": "fireextinguisher",
        "accessibility": null,
        "name": {
          "en": "Fire Extinguisher"
        },
        "alt_name": {
          "en": "fire_extinguisher"
        },
        "level_id": "41d0e8ca-d315-4b25-938c-7955db2daf2e",
        "correlation_id": null,
        "local_category": "issue_submitted_amenity",
        "pedestrian_importance": true,
        "visible_to_visitors": null,
        "hours": null,
        "phone": null,
        "website": null,
        "unit_ids": [],
        "address_id": null,
        "source": "GitHub issue",
        "source_url": "https://github.com/beatybiodiversitymuseum/indoor-mapping/issues/33",
        "source_issue_number": 33,
        "source_issue_title": "Amenity: Fire Extinguisher",
        "confirmation_methods": [
          "Visually confirmed on site",
          "Derived from existing wayfinding data"
        ],
        "confirmation_details": "58cm away from cabinet 8 corner, 62cm away from cabinet 7 corner, 8cm away from cabinet edges",
        "reference_points": "Cabinet 8.26 and Cabinet 7.01",
        "contributor_notes": ""
      },
      "geometry": {
        "type": "Point",
        "coordinates": [
          -123.2509346,
          49.2634577
        ]
      },
      "id": "815c1aae-c8d2-511a-ac13-25e4eb98c2ac",
      "feature_type": "amenity"
    },
    {
      "type": "Feature",
      "properties": {
        "category": "fireextinguisher",
        "accessibility": null,
        "name": {
          "en": "Fire Extinguisher"
        },
        "alt_name": {
          "en": "fire_extinguisher"
        },
        "level_id": "41d0e8ca-d315-4b25-938c-7955db2daf2e",
        "correlation_id": null,
        "local_category": "issue_submitted_amenity",
        "pedestrian_importance": true,
        "visible_to_visitors": null,
        "hours": null,
        "phone": null,
        "website": null,
        "unit_ids": [],
        "address_id": null,
        "source": "GitHub issue",
        "source_url": "https://github.com/beatybiodiversitymuseum/indoor-mapping/issues/34",
        "source_issue_number": 34,
        "source_issue_title": "Amenity: Fire Extinguisher",
        "confirmation_methods": [
          "Visually confirmed on site",
          "Derived from existing wayfinding data"
        ],
        "confirmation_details": "58cm away from cabinet 4 corner, 62cm away from cabinet 3 corner, 8cm away from cabinet edges",
        "reference_points": "Cabinet 4.24 and Cabinet 3.01",
        "contributor_notes": ""
      },
      "geometry": {
        "type": "Point",
        "coordinates": [
          -123.2509971,
          49.2634359
        ]
      },
      "id": "949563ce-7d6e-54c9-b92e-b0c52fb27e0d",
      "feature_type": "amenity"
    },
    {
      "type": "Feature",
      "properties": {
        "category": "waste",
        "accessibility": null,
        "name": {
          "en": "Garbage and Recycling Bins"
        },
        "alt_name": {
          "en": "garbage_and_recycling_bins"
        },
        "level_id": "41d0e8ca-d315-4b25-938c-7955db2daf2e",
        "correlation_id": null,
        "local_category": "issue_submitted_amenity",
        "pedestrian_importance": true,
        "visible_to_visitors": null,
        "hours": null,
        "phone": null,
        "website": null,
        "unit_ids": [],
        "address_id": null,
        "source": "GitHub issue",
        "source_url": "https://github.com/beatybiodiversitymuseum/indoor-mapping/issues/285",
        "source_issue_number": 285,
        "source_issue_title": "Amenity: Garbage and Recycling Bins",
        "confirmation_methods": [
          "Visually confirmed on site",
          "Measured on site",
          "Checked against a floor plan",
          "Derived from existing wayfinding data"
        ],
        "confirmation_details": "Refer to picture",
        "reference_points": "Cabinet 01.21",
        "contributor_notes": "",
        "location_review_status": "submitted_coordinates",
        "image_transcriptions": [
          {
            "issue_number": 285,
            "issue_url": "https://github.com/beatybiodiversitymuseum/indoor-mapping/issues/285",
            "image_url": "https://github.com/user-attachments/assets/f1e29ca6-606a-4397-bce7-77190a119396",
            "text": "-18\nDO\n:120\nrOW\n2.75m\nH\n0.25m",
            "engine": "Apple Vision accurate (en-US)",
            "review_status": "machine_transcribed_unreviewed",
            "confidence": 1
          }
        ],
        "imported_by": "issue_location_reconciliation",
        "photo_text": "-18\nDO\n:120\nrOW\n2.75m\nH\n0.25m",
        "photo_text_source_url": "https://github.com/user-attachments/assets/f1e29ca6-606a-4397-bce7-77190a119396"
      },
      "geometry": {
        "type": "Point",
        "coordinates": [
          -123.2508515,
          49.2632113
        ]
      },
      "id": "70108fb9-8a30-56e8-8990-959f21f72003",
      "feature_type": "amenity"
    },
    {
      "type": "Feature",
      "properties": {
        "category": "sink",
        "accessibility": null,
        "name": {
          "en": "Discovery Lab Sink"
        },
        "alt_name": {
          "en": "discovery_lab_sink"
        },
        "level_id": "41d0e8ca-d315-4b25-938c-7955db2daf2e",
        "correlation_id": null,
        "local_category": "issue_submitted_amenity",
        "pedestrian_importance": true,
        "visible_to_visitors": null,
        "hours": null,
        "phone": null,
        "website": null,
        "unit_ids": [],
        "address_id": null,
        "source": "GitHub issue",
        "source_url": "https://github.com/beatybiodiversitymuseum/indoor-mapping/issues/296",
        "source_issue_number": 296,
        "source_issue_title": "Amenity: Discovery Lab Sink",
        "confirmation_methods": [
          "Visually confirmed on site",
          "Measured on site",
          "Derived from existing wayfinding data"
        ],
        "confirmation_details": "Sink is 120cm from corner",
        "reference_points": "Discovery Lab Doors",
        "contributor_notes": "",
        "location_review_status": "submitted_coordinates",
        "imported_by": "issue_location_reconciliation"
      },
      "geometry": {
        "type": "Point",
        "coordinates": [
          -123.2501234,
          49.263728
        ]
      },
      "id": "f87dc234-575b-502d-b471-55dca1b18b6a",
      "feature_type": "amenity"
    },
    {
      "type": "Feature",
      "properties": {
        "category": "equipment",
        "accessibility": null,
        "name": {
          "en": "Discovery Lab Microscope"
        },
        "alt_name": {
          "en": "discovery_lab_microscope"
        },
        "level_id": "41d0e8ca-d315-4b25-938c-7955db2daf2e",
        "correlation_id": null,
        "local_category": "issue_submitted_amenity",
        "pedestrian_importance": true,
        "visible_to_visitors": null,
        "hours": null,
        "phone": null,
        "website": null,
        "unit_ids": [],
        "address_id": null,
        "source": "GitHub issue",
        "source_url": "https://github.com/beatybiodiversitymuseum/indoor-mapping/issues/297",
        "source_issue_number": 297,
        "source_issue_title": "Amenity: Discovery Lab Microscope",
        "confirmation_methods": [
          "Visually confirmed on site",
          "Checked against a floor plan",
          "Derived from existing wayfinding data"
        ],
        "confirmation_details": "",
        "reference_points": "Discovery Lab Doors",
        "contributor_notes": "",
        "location_review_status": "submitted_coordinates",
        "imported_by": "issue_location_reconciliation"
      },
      "geometry": {
        "type": "Point",
        "coordinates": [
          -123.2500656,
          49.26366
        ]
      },
      "id": "d739abb7-c9fe-58ce-b9c3-a912a1fa0514",
      "feature_type": "amenity"
    },
    {
      "type": "Feature",
      "properties": {
        "category": "seating",
        "accessibility": null,
        "name": {
          "en": "Theatre Priority Seating"
        },
        "alt_name": {
          "en": "theatre_priority_seating"
        },
        "level_id": "41d0e8ca-d315-4b25-938c-7955db2daf2e",
        "correlation_id": null,
        "local_category": "issue_submitted_amenity",
        "pedestrian_importance": true,
        "visible_to_visitors": null,
        "hours": null,
        "phone": null,
        "website": null,
        "unit_ids": [],
        "address_id": null,
        "source": "GitHub issue",
        "source_url": "https://github.com/beatybiodiversitymuseum/indoor-mapping/issues/196",
        "source_issue_number": 196,
        "source_issue_title": "Amenity: Theatre Priority Seating",
        "confirmation_methods": [
          "Visually confirmed on site",
          "Measured on site",
          "Checked against a floor plan",
          "Derived from existing wayfinding data"
        ],
        "confirmation_details": "Refer to picture",
        "reference_points": "Theatre Projection Booth",
        "contributor_notes": "",
        "location_review_status": "derived_from_submitted_geometry",
        "submitted_geometry": {
          "type": "Polygon",
          "coordinates": [
            [
              [
                -123.250885,
                49.2631148
              ],
              [
                -123.2508486,
                49.2631278
              ],
              [
                -123.2508458,
                49.2631246
              ],
              [
                -123.2508821,
                49.2631117
              ],
              [
                -123.250885,
                49.2631148
              ]
            ]
          ]
        },
        "placement_method": "Interior representative point of submitted polygon",
        "image_transcriptions": [
          {
            "issue_number": 196,
            "issue_url": "https://github.com/beatybiodiversitymuseum/indoor-mapping/issues/196",
            "image_url": "https://github.com/user-attachments/assets/cd65c73a-6479-447a-b44e-f466fa576921",
            "text": "0.4m/\n1.08m\n3m\n0.1m",
            "engine": "Apple Vision accurate (en-US)",
            "review_status": "machine_transcribed_unreviewed",
            "confidence": 1
          }
        ],
        "imported_by": "issue_location_reconciliation",
        "photo_text": "0.4m/\n1.08m\n3m\n0.1m",
        "photo_text_source_url": "https://github.com/user-attachments/assets/cd65c73a-6479-447a-b44e-f466fa576921"
      },
      "geometry": {
        "type": "Point",
        "coordinates": [
          -123.25086543430783,
          49.26311969992716
        ]
      },
      "id": "4bdce039-7592-5ed4-b922-4b5c44eb9571",
      "feature_type": "amenity"
    },
    {
      "type": "Feature",
      "properties": {
        "category": "seating",
        "accessibility": null,
        "name": {
          "en": "Theatre Regular Seating"
        },
        "alt_name": {
          "en": "theatre_regular_seating"
        },
        "level_id": "41d0e8ca-d315-4b25-938c-7955db2daf2e",
        "correlation_id": null,
        "local_category": "issue_submitted_amenity",
        "pedestrian_importance": true,
        "visible_to_visitors": null,
        "hours": null,
        "phone": null,
        "website": null,
        "unit_ids": [],
        "address_id": null,
        "source": "GitHub issue",
        "source_url": "https://github.com/beatybiodiversitymuseum/indoor-mapping/issues/197",
        "source_issue_number": 197,
        "source_issue_title": "Amenity: Theatre Regular Seating",
        "confirmation_methods": [
          "Visually confirmed on site",
          "Measured on site",
          "Checked against a floor plan",
          "Derived from existing wayfinding data"
        ],
        "confirmation_details": "Refer to image",
        "reference_points": "Threatre Priority Seating",
        "contributor_notes": "",
        "location_review_status": "derived_from_submitted_geometry",
        "submitted_geometry": {
          "type": "Polygon",
          "coordinates": [
            [
              [
                -123.2508008,
                49.2631518
              ],
              [
                -123.2507487,
                49.2630884
              ],
              [
                -123.2508382,
                49.263057
              ],
              [
                -123.2508821,
                49.2631117
              ],
              [
                -123.2508411,
                49.2631264
              ],
              [
                -123.2508484,
                49.2631342
              ],
              [
                -123.2508008,
                49.2631518
              ]
            ]
          ]
        },
        "placement_method": "Interior representative point of submitted polygon",
        "image_transcriptions": [
          {
            "issue_number": 197,
            "issue_url": "https://github.com/beatybiodiversitymuseum/indoor-mapping/issues/197",
            "image_url": "https://github.com/user-attachments/assets/e820aa2f-af7a-4492-b3b4-47116ef06146",
            "text": "Im\n0.4m\n7.4m\n8m",
            "engine": "Apple Vision accurate (en-US)",
            "review_status": "machine_transcribed_unreviewed",
            "confidence": 1
          }
        ],
        "imported_by": "issue_location_reconciliation",
        "photo_text": "Im\n0.4m\n7.4m\n8m",
        "photo_text_source_url": "https://github.com/user-attachments/assets/e820aa2f-af7a-4492-b3b4-47116ef06146"
      },
      "geometry": {
        "type": "Point",
        "coordinates": [
          -123.25081551286769,
          49.263100049774245
        ]
      },
      "id": "bda2a537-5d01-583f-b47e-3fbde1d4379f",
      "feature_type": "amenity"
    }
  ]
}
