{
  "type": "FeatureCollection",
  "features": [
    {
      "id": "c1e04c24-7f79-42c3-b82d-e63f4f5f389b",
      "type": "Feature",
      "feature_type": "footprint",
      "geometry": {
        "type": "Polygon",
        "coordinates": [[[-123.250668, 49.2630323], [-123.2508381, 49.262973], [-123.2511837, 49.2633951], [-123.2510135, 49.2634544], [-123.250718, 49.2630933], [-123.250668, 49.2630323]]]
      },
      "properties": {
        "category": "ground",
        "name": {
          "en": "Beaty Biodiversity Museum"
        },
        "building_ids": [
          "2bb3dd3d-2be8-4de8-9481-3e4de63a1b42"
        ],
        "source": "OpenStreetMap",
        "source_url": "https://www.openstreetmap.org/way/36835375",
        "source_license": "ODbL-1.0",
        "source_attribution": "OpenStreetMap contributors",
        "osm_type": "way",
        "osm_id": "36835375",
        "osm_name": "Beaty Biodiversity Museum",
        "osm_building": "yes",
        "osm_building_levels": "2",
        "osm_tourism": "museum",
        "osm_website": "https://beatymuseum.ubc.ca/",
        "local_category": "museum",
        "relationship_to_museum": "museum_public_building",
        "review_status": "locally_confirmed",
        "local_note": "Primary named OpenStreetMap footprint for the Beaty Biodiversity Museum."
      }
    },
    {
      "id": "80c58049-84e8-4b68-b3b5-1fe9bf5afc80",
      "type": "Feature",
      "feature_type": "footprint",
      "geometry": {
        "type": "Polygon",
        "coordinates": [[[-123.2500272, 49.2633307], [-123.2506797, 49.2631091], [-123.2507873, 49.2632441], [-123.2501348, 49.2634657], [-123.2503447, 49.2637289], [-123.2503709, 49.2637617], [-123.2504481, 49.2638586], [-123.2502888, 49.2639127], [-123.2502074, 49.2638107], [-123.2501753, 49.2637704], [-123.2500504, 49.2638129], [-123.2496391, 49.2632971], [-123.2497641, 49.2632547], [-123.2499234, 49.2632006], [-123.2500272, 49.2633307]]]
      },
      "properties": {
        "category": "ground",
        "name": {
          "en": "Biodiversity Research Center"
        },
        "building_ids": [
          "ed437194-4458-4b20-a845-92ababc0b446"
        ],
        "source": "OpenStreetMap",
        "source_url": "https://www.openstreetmap.org/way/83435229",
        "source_license": "ODbL-1.0",
        "source_attribution": "OpenStreetMap contributors",
        "osm_type": "way",
        "osm_id": "83435229",
        "osm_name": null,
        "osm_building": "university",
        "osm_building_levels": null,
        "local_category": "research_center",
        "relationship_to_museum": "museum_research_center",
        "review_status": "locally_confirmed",
        "local_note": "Locally confirmed as part of the Biodiversity Research Center."
      }
    },
    {
      "id": "f1c495a4-1f4c-469b-8bd6-24b7d63d9898",
      "type": "Feature",
      "feature_type": "footprint",
      "geometry": {
        "type": "Polygon",
        "coordinates": [[[-123.2505207, 49.26315], [-123.2506688, 49.2630997], [-123.2505496, 49.2629501], [-123.2504014, 49.2630004], [-123.2505207, 49.26315]]]
      },
      "properties": {
        "category": "ground",
        "name": {
          "en": "Biodiversity Research Center"
        },
        "building_ids": [
          "ed437194-4458-4b20-a845-92ababc0b446"
        ],
        "source": "OpenStreetMap",
        "source_url": "https://www.openstreetmap.org/way/1395853158",
        "source_license": "ODbL-1.0",
        "source_attribution": "OpenStreetMap contributors",
        "osm_type": "way",
        "osm_id": "1395853158",
        "osm_name": null,
        "osm_building": "construction",
        "osm_building_levels": "6",
        "local_category": "research_center",
        "relationship_to_museum": "museum_labs_and_offices",
        "review_status": "locally_confirmed",
        "local_note": "Locally confirmed as part of the Biodiversity Research Center and containing museum labs and offices."
      }
    },
    {
      "id": "c88cbbe7-56af-4afa-94dd-cb89e674e338",
      "type": "Feature",
      "feature_type": "footprint",
      "geometry": {
        "type": "Polygon",
        "coordinates": [[[-123.2514679, 49.2636836], [-123.2506401, 49.2639721], [-123.2505025, 49.263804], [-123.2511227, 49.2635878], [-123.2512928, 49.2635284], [-123.2513302, 49.2635154], [-123.2514679, 49.2636836]]]
      },
      "properties": {
        "category": "ground",
        "name": {
          "en": "Aquatic Ecosystems Research Laboratory"
        },
        "building_ids": [
          "333e92e9-5ea6-4539-9f75-597820d15dbc"
        ],
        "source": "OpenStreetMap",
        "source_url": "https://www.openstreetmap.org/way/33176122",
        "source_license": "ODbL-1.0",
        "source_attribution": "OpenStreetMap contributors",
        "osm_type": "way",
        "osm_id": "33176122",
        "osm_name": "Aquatic Ecosystems Research Laboratory",
        "osm_building": "university",
        "osm_building_levels": "4",
        "local_category": "adjacent_research_laboratory",
        "relationship_to_museum": "shares_overhang_and_bike_parking",
        "review_status": "locally_confirmed",
        "local_note": "Shares an overhang and bike parking with the Beaty and should be kept in this source set."
      }
    },
    {
      "id": "2f776791-e343-43cb-922c-821d4fe19257",
      "type": "Feature",
      "feature_type": "footprint",
      "geometry": {
        "type": "Polygon",
        "coordinates": [[[-123.2511837, 49.2633951], [-123.2512928, 49.2635284], [-123.2511227, 49.2635878], [-123.2510135, 49.2634544], [-123.2511837, 49.2633951]]]
      },
      "properties": {
        "category": "ground",
        "name": {
          "en": "Overhang between AERL and Beaty Museum"
        },
        "building_ids": [
          "2bb3dd3d-2be8-4de8-9481-3e4de63a1b42",
          "333e92e9-5ea6-4539-9f75-597820d15dbc"
        ],
        "source": "OpenStreetMap",
        "source_url": "https://www.openstreetmap.org/way/89366251",
        "source_license": "ODbL-1.0",
        "source_attribution": "OpenStreetMap contributors",
        "osm_type": "way",
        "osm_id": "89366251",
        "osm_name": null,
        "osm_building": "university",
        "osm_building_levels": "2",
        "local_category": "shared_overhang",
        "relationship_to_museum": "shared_overhang_and_bike_parking",
        "review_status": "locally_confirmed",
        "local_note": "Locally confirmed as the overhang between Aquatic Ecosystems Research Laboratory and the Beaty Biodiversity Museum."
      }
    }
  ]
}
