{
  "type": "FeatureCollection",
  "features": [
    {
      "type": "Feature",
      "properties": {
        "category": "pedestrian",
        "accessibility": null,
        "name": {
          "en": "Ramp Exit"
        },
        "alt_name": {
          "en": "ramp_exit"
        },
        "level_id": "41d0e8ca-d315-4b25-938c-7955db2daf2e",
        "correlation_id": null,
        "local_category": "issue_submitted_opening",
        "pedestrian_importance": true,
        "visible_to_visitors": null,
        "source": "GitHub issue",
        "source_url": "https://github.com/beatybiodiversitymuseum/indoor-mapping/issues/35",
        "source_issue_number": 35,
        "source_issue_title": "Amenity: Ramp Exit",
        "confirmation_methods": [
          "Visually confirmed on site",
          "Measured on site",
          "Checked against a floor plan",
          "Derived from existing wayfinding data"
        ],
        "confirmation_details": "Used corner of cabinet 1 as landmark. Refer to picture for measurements.",
        "reference_points": "Cabinet 1.21",
        "contributor_notes": "",
        "location_correction": {
          "original_coordinates": [
            -123.2509487,
            49.2631852
          ],
          "method": "Center of the ramp threshold identified in the issue measurement plan.",
          "reference_feature_ids": [
            "3f9ffcf0-b7b7-44f7-a1f5-14759447bff8"
          ],
          "distance_meters": 0.516
        },
        "image_transcriptions": [
          {
            "issue_number": 35,
            "issue_url": "https://github.com/beatybiodiversitymuseum/indoor-mapping/issues/35",
            "image_url": "https://github.com/user-attachments/assets/3dd36582-3aba-41a2-bfb5-8ad78ce0f669",
            "text": "4.82m\n0.92m\n1.50m\n0.30m",
            "engine": "Apple Vision accurate (en-US)",
            "review_status": "machine_transcribed_unreviewed",
            "confidence": 1
          }
        ],
        "photo_text": "4.82m\n0.92m\n1.50m\n0.30m",
        "photo_text_source_url": "https://github.com/user-attachments/assets/3dd36582-3aba-41a2-bfb5-8ad78ce0f669",
        "navigation_point_ids": [
          "408ac6e5-52b3-54ee-82e2-df42a87534cc"
        ]
      },
      "geometry": {
        "type": "Point",
        "coordinates": [
          -123.25095561548504,
          49.263184175488256
        ]
      },
      "id": "ef67ab39-a525-5c14-b21f-4a51460fc194",
      "feature_type": "opening"
    },
    {
      "type": "Feature",
      "properties": {
        "category": "pedestrian",
        "accessibility": null,
        "name": {
          "en": "Ramp Entrance"
        },
        "alt_name": {
          "en": "ramp_entrance"
        },
        "level_id": "41d0e8ca-d315-4b25-938c-7955db2daf2e",
        "correlation_id": null,
        "local_category": "issue_submitted_opening",
        "pedestrian_importance": true,
        "visible_to_visitors": null,
        "source": "GitHub issue",
        "source_url": "https://github.com/beatybiodiversitymuseum/indoor-mapping/issues/37",
        "source_issue_number": 37,
        "source_issue_title": "Amenity: Ramp Entrance",
        "confirmation_methods": [
          "Visually confirmed on site",
          "Measured on site",
          "Checked against a floor plan",
          "Derived from existing wayfinding data"
        ],
        "confirmation_details": "Position calculated via floor plans and used Cabinet 1 as a landmark. Refer to picture for measurements.",
        "reference_points": "Cabinet 1.21",
        "contributor_notes": "",
        "location_correction": {
          "original_coordinates": [
            -123.2509509,
            49.2631523
          ],
          "method": "Center of the ramp threshold identified in the issue measurement plan.",
          "reference_feature_ids": [
            "7d4f6814-e717-4ec8-804b-ec11b4c8c245"
          ],
          "distance_meters": 0.567
        },
        "image_transcriptions": [
          {
            "issue_number": 37,
            "issue_url": "https://github.com/beatybiodiversitymuseum/indoor-mapping/issues/37",
            "image_url": "https://github.com/user-attachments/assets/2b9d92d2-bf11-4052-adf1-ca3f9a27b2c9",
            "text": "7m\n-11\nYm\n1.50m",
            "engine": "Apple Vision accurate (en-US)",
            "review_status": "machine_transcribed_unreviewed",
            "confidence": 1
          }
        ],
        "photo_text": "7m\n-11\nYm\n1.50m",
        "photo_text_source_url": "https://github.com/user-attachments/assets/2b9d92d2-bf11-4052-adf1-ca3f9a27b2c9",
        "navigation_point_ids": [
          "a34c1600-54bd-5e62-9d0d-ea7df30b9873"
        ]
      },
      "geometry": {
        "type": "Point",
        "coordinates": [
          -123.25095768595578,
          49.26314979151837
        ]
      },
      "id": "9015d390-25fc-5cf1-b135-e2af2a573ee7",
      "feature_type": "opening"
    },
    {
      "type": "Feature",
      "properties": {
        "category": "pedestrian",
        "accessibility": null,
        "name": {
          "en": "Front Entrance"
        },
        "alt_name": {
          "en": "front_entrance"
        },
        "level_id": "553481bd-bdec-4fe2-8e59-6110190e9b94",
        "correlation_id": null,
        "local_category": "issue_submitted_opening",
        "pedestrian_importance": true,
        "visible_to_visitors": null,
        "source": "GitHub issue",
        "source_url": "https://github.com/beatybiodiversitymuseum/indoor-mapping/issues/38",
        "source_issue_number": 38,
        "source_issue_title": "Amenity: Front Entrance",
        "confirmation_methods": [
          "Visually confirmed on site",
          "Measured on site",
          "Checked against a floor plan",
          "Derived from existing wayfinding data"
        ],
        "confirmation_details": "Position calculated via floor plans and used Cabinet 1 as a landmark. Refer to picture for measurements.",
        "reference_points": "Cabinet 1.01",
        "contributor_notes": "",
        "location_correction": {
          "original_coordinates": [
            -123.2510352,
            49.2634339
          ],
          "method": "Center of the interior doorway gap between the short wall end and facing wall in the floor plan.",
          "reference_feature_ids": [
            "d5cfca4b-6d36-4fcb-a205-345a8d1672e0",
            "0fd942c4-04b5-4cf5-ad27-e957d0f69f5f"
          ],
          "distance_meters": 1.953
        },
        "image_transcriptions": [
          {
            "issue_number": 38,
            "issue_url": "https://github.com/beatybiodiversitymuseum/indoor-mapping/issues/38",
            "image_url": "https://github.com/user-attachments/assets/2749f86c-abc0-40e8-a75b-7349dcb74ae3",
            "text": "1\nT.4mI5tcn\n2",
            "engine": "Apple Vision accurate (en-US)",
            "review_status": "machine_transcribed_unreviewed",
            "confidence": 0.767
          }
        ],
        "photo_text": "1\nT.4mI5tcn\n2",
        "photo_text_source_url": "https://github.com/user-attachments/assets/2749f86c-abc0-40e8-a75b-7349dcb74ae3"
      },
      "geometry": {
        "type": "Point",
        "coordinates": [
          -123.25103120977671,
          49.263451272002094
        ]
      },
      "id": "e6503b8d-fd63-5f9f-9550-2f469641bdef",
      "feature_type": "opening"
    },
    {
      "type": "Feature",
      "properties": {
        "category": "pedestrian",
        "accessibility": null,
        "name": {
          "en": "Theatre Accessibility Ramp Entrance"
        },
        "alt_name": {
          "en": "theatre_accessibility_ramp_entrance"
        },
        "level_id": "41d0e8ca-d315-4b25-938c-7955db2daf2e",
        "correlation_id": null,
        "local_category": "issue_submitted_opening",
        "pedestrian_importance": true,
        "visible_to_visitors": null,
        "source": "GitHub issue",
        "source_url": "https://github.com/beatybiodiversitymuseum/indoor-mapping/issues/253",
        "source_issue_number": 253,
        "source_issue_title": "Amenity: Theatre Accessibility Ramp Entrance",
        "confirmation_methods": [
          "Visually confirmed on site",
          "Measured on site",
          "Checked against a floor plan",
          "Derived from existing wayfinding data"
        ],
        "confirmation_details": "",
        "reference_points": "Amenity Theatre Priority Seating",
        "contributor_notes": "",
        "location_review_status": "derived_from_submitted_geometry",
        "submitted_geometry": {
          "type": "LineString",
          "coordinates": [
            [
              -123.2509016,
              49.2631102
            ],
            [
              -123.2509093,
              49.2631198
            ]
          ]
        },
        "placement_method": "Midpoint of submitted line",
        "image_transcriptions": [
          {
            "issue_number": 253,
            "issue_url": "https://github.com/beatybiodiversitymuseum/indoor-mapping/issues/253",
            "image_url": "https://github.com/user-attachments/assets/ad049e8a-0631-457d-bf0c-63ed6640a4cb",
            "text": "1.2m\n1.3m",
            "engine": "Apple Vision accurate (en-US)",
            "review_status": "machine_transcribed_unreviewed",
            "confidence": 1
          }
        ],
        "imported_by": "issue_location_reconciliation",
        "photo_text": "1.2m\n1.3m",
        "photo_text_source_url": "https://github.com/user-attachments/assets/ad049e8a-0631-457d-bf0c-63ed6640a4cb",
        "navigation_point_ids": [
          "6ec13f82-55d0-56e4-8a7f-887aeb663cff"
        ]
      },
      "geometry": {
        "type": "Point",
        "coordinates": [
          -123.25090544999965,
          49.263115000000056
        ]
      },
      "id": "5225a443-2c0f-5068-8d07-1378cae72caa",
      "feature_type": "opening"
    },
    {
      "type": "Feature",
      "properties": {
        "category": "pedestrian",
        "accessibility": null,
        "name": {
          "en": "Theatre Accessibility Ramp Exit"
        },
        "alt_name": {
          "en": "theatre_accessibility_ramp_exit"
        },
        "level_id": "41d0e8ca-d315-4b25-938c-7955db2daf2e",
        "correlation_id": null,
        "local_category": "issue_submitted_opening",
        "pedestrian_importance": true,
        "visible_to_visitors": null,
        "source": "GitHub issue",
        "source_url": "https://github.com/beatybiodiversitymuseum/indoor-mapping/issues/254",
        "source_issue_number": 254,
        "source_issue_title": "Amenity: Theatre Accessibility Ramp Exit",
        "confirmation_methods": [
          "Visually confirmed on site",
          "Measured on site",
          "Checked against a floor plan",
          "Derived from existing wayfinding data"
        ],
        "confirmation_details": "See image for floor plans",
        "reference_points": "Theatre Regular Seating",
        "contributor_notes": "",
        "location_review_status": "derived_from_submitted_geometry",
        "submitted_geometry": {
          "type": "LineString",
          "coordinates": [
            [
              -123.2507194,
              49.2630529
            ],
            [
              -123.2507032,
              49.263059
            ]
          ]
        },
        "placement_method": "Midpoint of submitted line",
        "image_transcriptions": [
          {
            "issue_number": 254,
            "issue_url": "https://github.com/beatybiodiversitymuseum/indoor-mapping/issues/254",
            "image_url": "https://github.com/user-attachments/assets/dc8bce4d-c5bc-4410-900c-8bdae75bcfa5",
            "text": "1.2m\n4.Sm\n1.35m",
            "engine": "Apple Vision accurate (en-US)",
            "review_status": "machine_transcribed_unreviewed",
            "confidence": 1
          }
        ],
        "imported_by": "issue_location_reconciliation",
        "photo_text": "1.2m\n4.Sm\n1.35m",
        "photo_text_source_url": "https://github.com/user-attachments/assets/dc8bce4d-c5bc-4410-900c-8bdae75bcfa5",
        "navigation_point_ids": [
          "5a215d79-5038-568c-b6b0-15b2968aa9b6"
        ]
      },
      "geometry": {
        "type": "Point",
        "coordinates": [
          -123.2507113000005,
          49.26305595000027
        ]
      },
      "id": "90fcb866-65be-569c-b80f-d8558d8ac146",
      "feature_type": "opening"
    },
    {
      "type": "Feature",
      "properties": {
        "category": "pedestrian",
        "accessibility": null,
        "name": {
          "en": "Discovery Lab Emergency Exit"
        },
        "alt_name": {
          "en": "discovery_lab_emergency_exit"
        },
        "level_id": "41d0e8ca-d315-4b25-938c-7955db2daf2e",
        "correlation_id": null,
        "local_category": "issue_submitted_opening",
        "pedestrian_importance": true,
        "visible_to_visitors": null,
        "source": "GitHub issue",
        "source_url": "https://github.com/beatybiodiversitymuseum/indoor-mapping/issues/298",
        "source_issue_number": 298,
        "source_issue_title": "Amenity: Discovery Lab Emergency Exit",
        "confirmation_methods": [
          "Visually confirmed on site",
          "Checked against a floor plan",
          "Derived from existing wayfinding data"
        ],
        "confirmation_details": "Emergency exit is a single door parallel to Discovery Lab Doors and on the wall directly outside.",
        "reference_points": "Discovery Lab Doors",
        "contributor_notes": "",
        "location_review_status": "derived_from_submitted_geometry",
        "submitted_geometry": {
          "type": "LineString",
          "coordinates": [
            [
              -123.2501687,
              49.263752
            ],
            [
              -123.2501807,
              49.2637476
            ]
          ]
        },
        "placement_method": "Midpoint of submitted line",
        "imported_by": "issue_location_reconciliation",
        "navigation_point_ids": [
          "5faf6a41-6f54-595f-b493-d9a134148afc"
        ]
      },
      "geometry": {
        "type": "Point",
        "coordinates": [
          -123.25017470000026,
          49.263749800000156
        ]
      },
      "id": "ad52d1e0-ba02-5e4f-8eae-172e28ba691b",
      "feature_type": "opening"
    },
    {
      "type": "Feature",
      "properties": {
        "category": "pedestrian",
        "accessibility": null,
        "name": {
          "en": "Front Emergency Exit"
        },
        "alt_name": {
          "en": "front_emergency_exit"
        },
        "level_id": "41d0e8ca-d315-4b25-938c-7955db2daf2e",
        "correlation_id": null,
        "local_category": "issue_submitted_opening",
        "pedestrian_importance": true,
        "visible_to_visitors": null,
        "source": "GitHub issue",
        "source_url": "https://github.com/beatybiodiversitymuseum/indoor-mapping/issues/299",
        "source_issue_number": 299,
        "source_issue_title": "Amenity: Front Emergency Exit",
        "confirmation_methods": [
          "Visually confirmed on site",
          "Measured on site",
          "Checked against a floor plan",
          "Derived from existing wayfinding data"
        ],
        "confirmation_details": "Emergency exit is a single door parallel to the cabinets, approximately _cm to the left of We Are All One Artwork.",
        "reference_points": "We Are All One Artwork",
        "contributor_notes": "",
        "location_review_status": "derived_from_submitted_geometry",
        "submitted_geometry": {
          "type": "LineString",
          "coordinates": [
            [
              -123.2511006,
              49.2634261
            ],
            [
              -123.251107,
              49.2634335
            ]
          ]
        },
        "placement_method": "Midpoint of submitted line",
        "imported_by": "issue_location_reconciliation"
      },
      "geometry": {
        "type": "Point",
        "coordinates": [
          -123.25110379999978,
          49.26342980000004
        ]
      },
      "id": "0b8940d0-8596-54e2-99b0-a8b66e5c7f14",
      "feature_type": "opening"
    },
    {
      "type": "Feature",
      "properties": {
        "category": "pedestrian",
        "accessibility": null,
        "name": {
          "en": "Staff Door"
        },
        "alt_name": {
          "en": "staff_door"
        },
        "level_id": "41d0e8ca-d315-4b25-938c-7955db2daf2e",
        "correlation_id": null,
        "local_category": "issue_submitted_opening",
        "pedestrian_importance": true,
        "visible_to_visitors": null,
        "source": "GitHub issue",
        "source_url": "https://github.com/beatybiodiversitymuseum/indoor-mapping/issues/301",
        "source_issue_number": 301,
        "source_issue_title": "Amenity: Staff Door",
        "confirmation_methods": [
          "Visually confirmed on site",
          "Checked against a floor plan",
          "Derived from existing wayfinding data"
        ],
        "confirmation_details": "113cm wide door directly beside Life On Earth Timeline",
        "reference_points": "Life On Earth Timeline",
        "contributor_notes": "",
        "location_review_status": "derived_from_submitted_geometry",
        "submitted_geometry": {
          "type": "LineString",
          "coordinates": [
            [
              -123.2502762,
              49.2634006
            ],
            [
              -123.2502625,
              49.2634055
            ]
          ]
        },
        "placement_method": "Midpoint of submitted line",
        "imported_by": "issue_location_reconciliation"
      },
      "geometry": {
        "type": "Point",
        "coordinates": [
          -123.25026935000034,
          49.2634030500002
        ]
      },
      "id": "1319525b-bc7c-5c4d-8e24-5e3a86ef6cca",
      "feature_type": "opening"
    },
    {
      "type": "Feature",
      "properties": {
        "category": "pedestrian",
        "accessibility": null,
        "name": {
          "en": "Staff Door"
        },
        "alt_name": {
          "en": "staff_door"
        },
        "level_id": "41d0e8ca-d315-4b25-938c-7955db2daf2e",
        "correlation_id": null,
        "local_category": "issue_submitted_opening",
        "pedestrian_importance": true,
        "visible_to_visitors": null,
        "source": "GitHub issue",
        "source_url": "https://github.com/beatybiodiversitymuseum/indoor-mapping/issues/302",
        "source_issue_number": 302,
        "source_issue_title": "Amenity: Staff Door",
        "confirmation_methods": [
          "Visually confirmed on site",
          "Measured on site",
          "Derived from existing wayfinding data"
        ],
        "confirmation_details": "113cm wide door directly beside Life On Earth Timeline",
        "reference_points": "Life On Earth Timeline",
        "contributor_notes": "",
        "location_review_status": "derived_from_submitted_geometry",
        "submitted_geometry": {
          "type": "LineString",
          "coordinates": [
            [
              -123.2506689,
              49.2632637
            ],
            [
              -123.2506826,
              49.2632588
            ]
          ]
        },
        "placement_method": "Midpoint of submitted line",
        "imported_by": "issue_location_reconciliation"
      },
      "geometry": {
        "type": "Point",
        "coordinates": [
          -123.25067575000033,
          49.26326125000021
        ]
      },
      "id": "90acf8ee-4857-51a8-ac75-7349473502d2",
      "feature_type": "opening"
    },
    {
      "type": "Feature",
      "geometry": {
        "type": "Point",
        "coordinates": [
          -123.25081795000158,
          49.263171800000904
        ]
      },
      "properties": {
        "category": "pedestrian",
        "accessibility": null,
        "name": {
          "en": "Theatre East Doors"
        },
        "alt_name": {
          "en": "theatre_east_doors"
        },
        "level_id": "41d0e8ca-d315-4b25-938c-7955db2daf2e",
        "correlation_id": null,
        "local_category": "issue_submitted_opening",
        "pedestrian_importance": true,
        "visible_to_visitors": null,
        "hours": null,
        "phone": null,
        "website": null,
        "unit_ids": [],
        "address_id": null,
        "source": "GitHub issue",
        "source_url": "https://github.com/beatybiodiversitymuseum/indoor-mapping/issues/229",
        "source_issue_number": 229,
        "source_issue_title": "Amenity: Theatre East Doors",
        "confirmation_methods": [
          "Visually confirmed on site",
          "Measured on site",
          "Checked against a floor plan",
          "Derived from existing wayfinding data"
        ],
        "confirmation_details": "Door placement is inconsistent with floor plan. While the plans show the doors being flush with the corner of the theatre booth, they are actually much further back; approximately half the width of the booth. See picture for marked up floor plans.",
        "reference_points": "Theatre Booth",
        "contributor_notes": "",
        "location_review_status": "derived_from_submitted_geometry",
        "submitted_geometry": {
          "type": "LineString",
          "coordinates": [
            [
              -123.2508324,
              49.2631664
            ],
            [
              -123.2508035,
              49.2631772
            ]
          ]
        },
        "placement_method": "Midpoint of submitted line",
        "image_transcriptions": [
          {
            "issue_number": 229,
            "issue_url": "https://github.com/beatybiodiversitymuseum/indoor-mapping/issues/229",
            "image_url": "https://github.com/user-attachments/assets/55e1c95f-c1ba-4601-9c76-a145e2da6967",
            "text": "2.ym\n11.66m",
            "engine": "Apple Vision accurate (en-US)",
            "review_status": "machine_transcribed_unreviewed",
            "confidence": 0.65
          }
        ],
        "imported_by": "issue_location_reconciliation",
        "photo_text": "2.ym\n11.66m",
        "photo_text_source_url": "https://github.com/user-attachments/assets/55e1c95f-c1ba-4601-9c76-a145e2da6967",
        "navigation_point_ids": [
          "5e6dc79f-d561-56ec-ab63-a259430aa87a"
        ]
      },
      "id": "16370992-2f51-5b84-95a3-b9605a6b444a",
      "feature_type": "opening"
    },
    {
      "type": "Feature",
      "properties": {
        "category": "pedestrian",
        "accessibility": null,
        "name": {
          "en": "Theatre West Doors"
        },
        "alt_name": {
          "en": "theatre_west_doors"
        },
        "level_id": "41d0e8ca-d315-4b25-938c-7955db2daf2e",
        "correlation_id": null,
        "local_category": "issue_submitted_opening",
        "pedestrian_importance": true,
        "visible_to_visitors": null,
        "hours": null,
        "phone": null,
        "website": null,
        "unit_ids": [],
        "address_id": null,
        "source": "GitHub issue",
        "source_url": "https://github.com/beatybiodiversitymuseum/indoor-mapping/issues/230",
        "source_issue_number": 230,
        "source_issue_title": "Amenity: Theatre West Doors",
        "confirmation_methods": [
          "Visually confirmed on site",
          "Measured on site",
          "Checked against a floor plan",
          "Derived from existing wayfinding data"
        ],
        "confirmation_details": "See #229",
        "reference_points": "Theatre Booth",
        "contributor_notes": "",
        "location_review_status": "derived_from_submitted_geometry",
        "submitted_geometry": {
          "type": "LineString",
          "coordinates": [
            [
              -123.250892,
              49.2631436
            ],
            [
              -123.2509215,
              49.2631336
            ]
          ]
        },
        "placement_method": "Midpoint of submitted line",
        "image_transcriptions": [
          {
            "issue_number": 230,
            "issue_url": "https://github.com/beatybiodiversitymuseum/indoor-mapping/issues/230",
            "image_url": "https://github.com/user-attachments/assets/92ca8b68-c79e-40bf-83fa-870edc6d067e",
            "text": "2.4m\n11.66m",
            "engine": "Apple Vision accurate (en-US)",
            "review_status": "machine_transcribed_unreviewed",
            "confidence": 1
          }
        ],
        "imported_by": "issue_location_reconciliation",
        "photo_text": "2.4m\n11.66m",
        "photo_text_source_url": "https://github.com/user-attachments/assets/92ca8b68-c79e-40bf-83fa-870edc6d067e",
        "navigation_point_ids": [
          "b4a91c5d-eb5d-5c25-86b0-41666d2a2080"
        ]
      },
      "geometry": {
        "type": "Point",
        "coordinates": [
          -123.25090675000149,
          49.26313860000095
        ]
      },
      "id": "19c6cc9e-d4c0-56a2-a020-759def15404d",
      "feature_type": "opening"
    },
    {
      "type": "Feature",
      "properties": {
        "category": "pedestrian",
        "accessibility": null,
        "name": {
          "en": "Discovery Lab Doors"
        },
        "alt_name": {
          "en": "discovery_lab_doors"
        },
        "level_id": "41d0e8ca-d315-4b25-938c-7955db2daf2e",
        "correlation_id": null,
        "local_category": "issue_submitted_opening",
        "pedestrian_importance": true,
        "visible_to_visitors": null,
        "hours": null,
        "phone": null,
        "website": null,
        "unit_ids": [],
        "address_id": null,
        "source": "GitHub issue",
        "source_url": "https://github.com/beatybiodiversitymuseum/indoor-mapping/issues/287",
        "source_issue_number": 287,
        "source_issue_title": "Amenity: Discovery Lab Doors",
        "confirmation_methods": [
          "Visually confirmed on site",
          "Measured on site",
          "Checked against a floor plan",
          "Derived from existing wayfinding data"
        ],
        "confirmation_details": "Refer to picture of floor plan",
        "reference_points": "Cabinet 52.26",
        "contributor_notes": "",
        "location_review_status": "derived_from_submitted_geometry",
        "submitted_geometry": {
          "type": "LineString",
          "coordinates": [
            [
              -123.2501898,
              49.2637165
            ],
            [
              -123.2501291,
              49.2637379
            ]
          ]
        },
        "placement_method": "Midpoint of submitted line",
        "image_transcriptions": [
          {
            "issue_number": 287,
            "issue_url": "https://github.com/beatybiodiversitymuseum/indoor-mapping/issues/287",
            "image_url": "https://github.com/user-attachments/assets/e01c78d6-0d41-4f08-a1b6-d9405e9f3cc0",
            "text": "26\n2600\n+3.45m\n200 mm\nvent\n0.2m\n5.00m",
            "engine": "Apple Vision accurate (en-US)",
            "review_status": "machine_transcribed_unreviewed",
            "confidence": 1
          }
        ],
        "imported_by": "issue_location_reconciliation",
        "photo_text": "26\n2600\n+3.45m\n200 mm\nvent\n0.2m\n5.00m",
        "photo_text_source_url": "https://github.com/user-attachments/assets/e01c78d6-0d41-4f08-a1b6-d9405e9f3cc0",
        "navigation_point_ids": [
          "d5bbed1d-055e-5aca-a13a-44730555a328"
        ]
      },
      "geometry": {
        "type": "Point",
        "coordinates": [
          -123.25015945000656,
          49.26372720000399
        ]
      },
      "id": "185f3072-d4c3-5fe4-810b-9624990b86be",
      "feature_type": "opening"
    }
  ]
}
